KUIPER-00176            
1 65788U 25217AC  25286.25968685  .00044661  00000+0  12241-2 0  9995
2 65788  51.8743 356.6557 0001951  65.1867 294.9322 15.36852867  2745
